2019-032F               
1 44315U 19032F   21314.09339406  .00001787  00000-0  15176-3 0  9993
2 44315  44.9841 318.3940 0017673 213.2715 146.6992 15.01903725133582
2019-032G               
1 44316U 19032G   21314.17568786  .00001013  00000-0  99625-4 0  9992
2 44316  44.9877 334.5409 0016776 197.4149 162.6100 14.99419092133381
RCM-1                   
1 44322U 19033A   21314.13432695  .00000283  00000-0  32947-4 0  9997
2 44322  97.7595 319.5971 0001707  85.6379 274.5022 14.92593609131473
RCM-3                   
1 44323U 19033B   21314.15694473 -.00000509  00000-0 -44118-4 0  9990
2 44323  97.7593 319.7139 0001548  79.4607 280.6777 14.92585892131490
RCM-2                   
1 44324U 19033C   21314.11212428  .00000079  00000-0  13107-4 0  9997
2 44324  97.7589 319.6230 0001592  82.6397 277.5012 14.92589506131479
AT&T T-16               
1 44333U 19034A   21313.61611986 -.00000119  00000-0  00000-0 0  9994
2 44333   0.0135 285.1209 0000194  92.9524 151.8824  1.00268268  8785
EUTELSAT 7C             
1 44334U 19034B   21314.04945181  .00000043  00000-0  00000+0 0  9994
2 44334   0.0359 260.3433 0003211 305.8898 228.0277  1.00272182  9286
BEIDOU-3 IGSO-2         
1 44337U 19035A   21313.45666330 -.00000099  00000-0  00000-0 0  9991
2 44337  55.0988 173.6944 0020413 178.1148 340.8960  1.00268175  8842
PROX-1                  
1 44339U 19036A   21314.17082738  .00001517  00000-0  30448-3 0  9995
2 44339  23.9992 136.2679 0011076 333.6431  26.3496 14.53900208126484
NPSAT1                  
1 44340U 19036B   21313.94266010  .00001072  00000-0  20389-3 0  9997
2 44340  23.9995 140.3979 0011131 320.7321  39.2362 14.53190254126426
OTB                     
1 44341U 19036C   21313.71824331  .00000378  00000-0  39664-4 0  9994
2 44341  23.9965 141.4173 0011731 321.4657  38.4996 14.52928061126426
FORMOSAT 7-3            
1 44343U 19036E   21313.81892788  .00001589  00000-0  78626-4 0  9994
2 44343  23.9999 214.3321 0009977 257.4464 102.4924 15.08089936129071
DSX                     
1 44344U 19036F   21312.54229809 -.00000012  00000-0  00000-0 0  9990
2 44344  42.2190 246.3267 1975183  12.9634 351.4739  4.54372025 39363
OCULUS-ASR              
1 44348U 19036K   21314.04463205  .00033378  00000-0  42306-3 0  9999
2 44348  28.5088 241.7216 0308192  48.3323 314.3229 15.17946239131001
FORMOSAT 7-1            
1 44349U 19036L   21313.62068875  .00001869  00000-0  96195-4 0  9993
2 44349  24.0010  31.7156 0011577 293.7601  66.1688 15.08086194130815
FORMOSAT 7-4            
1 44350U 19036M   21313.77489703  .00001734  00000-0  87989-4 0  9990
2 44350  23.9991  92.7511 0005953 345.3118  14.7212 15.08084758130257
FORMOSAT 7-2            
1 44351U 19036N   21313.92985845  .00001624  00000-0  80627-4 0  9996
2 44351  23.9981 146.0518 0014644  18.5527 341.5509 15.08078003129835
ARMADILLO               
1 44352U 19036P   21314.06458347  .00058793  00000-0  64744-3 0  9995
2 44352  28.5252 207.2042 0263729 102.2163 260.8098 15.29507236131306
FORMOSAT 7-6            
1 44353U 19036Q   21313.40077747  .00001767  00000-0  90202-4 0  9992
2 44353  24.0008 330.4827 0003010  33.9916 326.0780 15.08082903127942
PSAT2 (NO-104)          
1 44354U 19036R   21314.04835973  .00033114  00000-0  40709-3 0  9994
2 44354  28.5244 232.6458 0302181  60.6176 302.4241 15.19758154131083
BRICSAT2 (NO-103)       
1 44355U 19036S   21313.27198883  .00074152 -49863-5  63285-3 0  9998
2 44355  28.5233 164.2984 0210613 171.7953 188.6168 15.44293522131714
2019-036U               
1 44357U 19036U   21314.10265105  .00031544  00000-0  38018-3 0  9993
2 44357  28.5222 229.8575 0302691  65.4037 297.7783 15.20065778131111
FORMOSAT 7-5            
1 44358U 19036V   21313.57699859  .00001699  00000-0  85757-4 0  9992
2 44358  24.0003 269.0223 0006834 166.4958 193.5729 15.08086237128499
2019-036Y               
1 44361U 19036Y   21309.68581150  .05500442 -73872-5  13574-2 0  9991
2 44361  28.4940  77.0256 0026016 325.8605  34.0344 16.26901669132132
RED-EYE 1 (PINOT)       
1 44364U 98067QJ  21313.69127986  .00018366  00000-0  20098-3 0  9995
2 44364  51.6386 302.4643 0007400  68.3624 291.8158 15.63327545134872
PAINANI 1               
1 44365U 19037A   21314.01402151  .00007940  00000-0  18131-3 0  9994
2 44365  45.0023 165.4858 0004560 313.3585  46.6924 15.43427006133244
PROMETHEUS 2-9          
1 44366U 19037B   21313.91853733  .00021166  00000-0  36759-3 0  9991
2 44366  45.0063 147.4190 0005703 297.1310  62.9000 15.50520971133455
GLOBAL-3                
1 44367U 19037C   21314.03463753  .00005011  00000-0  12202-3 0  9993
2 44367  45.0053 164.0759 0008406 307.3735  52.6388 15.42227563133265
ELECTRON KICK STAGE R/B 
1 44368U 19037D   21313.66212727  .00034459  00000-0  48016-3 0  9995
2 44368  45.0012 129.1252 0008040 315.9260  44.0993 15.56341414133649
ACRUX 1                 
1 44369U 19037E   21313.86126031  .00020646  00000-0  34035-3 0  9999
2 44369  45.0029 134.9669 0010317 314.1770  45.8274 15.51963291133549
SPACEBEE-9              
1 44370U 19037F   21313.78456951  .00205597  00000-0  10760-2 0  9997
2 44370  44.9877 100.1575 0014478 314.6662  45.3060 15.79359728133944
PROMETHEUS 2-7          
1 44374U 19037K   21313.80877957  .00022355  00000-0  37734-3 0  9997
2 44374  45.0032 145.6979 0005540 296.1120  63.9201 15.51292397133286
PROMETHEUS 2-6          
1 44386U 19036AB  21313.88393833  .00095320 -43608-5  65673-3 0  9995
2 44386  28.5337 136.3425 0175829 216.7871 142.0553 15.54868059130750
METEOR-M2 2             
1 44387U 19038A   21312.05358823 -.00000047  00000-0 -11765-5 0  9998
2 44387  98.6913 270.0058 0001542 151.7544 208.3712 14.23693735121904
2019-038B               
1 44388U 19038B   21313.57764453  .00004984  00000-0  40601-3 0  9998
2 44388  97.7827 278.0641 0018500 243.2235 116.7095 14.99834587128437
ICEYE-X5                
1 44389U 19038C   21314.09621351  .00001558  00000-0  13890-3 0  9990
2 44389  97.7978 278.3641 0019119 243.9813 115.9424 14.97358665128459
ICEYE-X4                
1 44390U 19038D   21314.10028427  .00000742  00000-0  69311-4 0  9993
2 44390  97.7957 278.1154 0019224 244.2862 115.6371 14.97096272128451
NSL-1                   
1 44391U 19038E   21313.62142374  .00002147  00000-0  18328-3 0  9990
2 44391  97.7933 278.3665 0018720 243.6713 116.2587 14.98646739128358
VDNH-80                 
1 44392U 19038G   21314.15400074  .00003886  00000-0  21465-3 0  9991
2 44392  97.6060 278.4019 0020998 165.7488 324.5319 15.14333500129633
D-STAR ONE (LIGHTSAT)   
1 44393U 19038H   21313.60796109  .00002457  00000-0  13743-3 0  9991
2 44393  97.6080 277.7256 0021380 167.4888 192.6878 15.14240831129740
AMGU-1 (AMURSAT)        
1 44394U 19038J   21313.82157843  .00003470  00000-0  19240-3 0  9996
2 44394  97.6048 277.8823 0021702 167.2180 192.9606 15.14260057129774
2019-038K               
1 44395U 19038K   21314.18883197  .00002498  00000-0  14446-3 0  9997
2 44395  97.6082 277.3047 0024819 166.1497 319.7904 15.12968161129754
LEMUR-2-LILLYJO         
1 44396U 19038L   21313.81326918  .00003019  00000-0  16359-3 0  9995
2 44396  97.5965 277.4854 0023804 161.5856 198.6243 15.15148165129782
2019-038M               
1 44397U 19038M   21313.77717694  .00002975  00000-0  16770-3 0  9993
2 44397  97.6046 277.1858 0025034 164.5834 195.6165 15.13725493129728
MOVE-IIB                
1 44398U 19038N   21313.84314319  .00003815  00000-0  20910-3 0  9994
2 44398  97.6019 277.4126 0024157 163.9544 196.2458 15.14566324129769
DOT-1                   
1 44399U 19038P   21313.74396185  .00001460  00000-0  85703-4 0  9991
2 44399  97.6107 277.0995 0024254 171.9988 188.1635 15.13114576129705
SONATE                  
1 44400U 19038Q   21313.77551670  .00001902  00000-0  11096-3 0  9993
2 44400  97.6079 277.0713 0025057 166.1441 194.0482 15.12941786129702
2019-038R               
1 44401U 19038R   21313.89482028  .00003778  00000-0  20969-3 0  9999
2 44401  97.6037 277.6037 0024503 162.3937 197.8149 15.14115053129764
LEMUR-2-WANLI           
1 44402U 19038S   21314.07502629  .00002615  00000-0  14357-3 0  9994
2 44402  97.5977 277.6752 0023960 161.6933 198.5166 15.14801895129825
LEMUR-2-MORAG           
1 44403U 19038T   21313.79206729  .00003728  00000-0  20057-3 0  9995
2 44403  97.6014 277.9747 0022572 165.0560 195.1344 15.15269021129795
SOKRAT                  
1 44404U 19038U   21313.65915522  .00002953  00000-0  16507-3 0  9993
2 44404  97.6070 277.4491 0021582 169.2184 190.9515 15.14095708129732
LEMUR-2-DUSTINTHEWIND   
1 44405U 19038V   21313.65999221  .00002846  00000-0  15634-3 0  9993
2 44405  97.5967 277.1906 0023791 162.3974 197.8088 15.14704963129764
LUCKY-7                 
1 44406U 19038W   21313.53912481  .00001733  00000-0  10015-3 0  9996
2 44406  97.6099 277.1586 0024273 165.1775 195.0172 15.13424294129682
LEMUR-2-ALEX-MADDY      
1 44407U 19038X   21313.65523547  .00002485  00000-0  13956-3 0  9993
2 44407  97.6036 277.3146 0022845 168.3710 191.8054 15.14061338129720
MOMENTUS-X1             
1 44408U 19038Y   21313.63614301  .00001320  00000-0  78336-4 0  9992
2 44408  97.6045 276.5970 0023538 168.7918 191.3842 15.12902323129693
LEMUR-2-EJATTA          
1 44409U 19038Z   21313.76329015  .00003118  00000-0  16793-3 0  9997
2 44409  97.5960 277.6183 0023643 160.0880 200.1280 15.15344498129801
D-STAR ONE (EXOCONNECT) 
1 44410U 19038AA  21313.66781174  .00004093  00000-0  22052-3 0  9994
2 44410  97.6037 277.8741 0021167 165.8693 194.3135 15.15187328129771
LEMUR-2-GREGROBINSON    
1 44411U 19038AB  21313.63812557  .00003434  00000-0  18546-3 0  9993
2 44411  97.6023 277.8166 0022682 166.7590 193.4243 15.15187441129436
BEESAT 9                
1 44412U 19038AC  21313.65268754  .00002990  00000-0  16789-3 0  9993
2 44412  97.6079 277.3495 0022037 169.2238 190.9470 15.13924358129415
